STARLINK-31140          
1 58767U 24011C   26012.92965319 -.00001218  00000+0 -29001-4 0  9995
2 58767  53.1593 272.6451 0001287  92.7222 267.3926 15.30187498111734
STARLINK-31145          
1 58768U 24011D   26013.00002315  .00131974  00000+0  24120-2 0  9990
2 58768  53.1421 278.2604 0011869 138.0459  29.0680 15.48388156  5881
STARLINK-31146          
1 58769U 24011E   26012.99180503  .00001352  00000+0  57784-4 0  9994
2 58769  53.1580 272.3238 0001174  74.1055 286.0075 15.30188208111749
STARLINK-31143          
1 58770U 24011F   26012.98859408  .00005063  00000+0  18276-3 0  9997
2 58770  53.1589 272.3002 0001159  81.0177 279.0955 15.30236610111744
STARLINK-31135          
1 58771U 24011G   26012.99972639  .00006782  00000+0  24100-3 0  9993
2 58771  53.1573 270.2615 0001286  65.3204 294.7931 15.30184322111775
STARLINK-31136          
1 58772U 24011H   26012.99813672  .00002121  00000+0  83736-4 0  9999
2 58772  53.1579 272.3572 0001166  87.9309 272.1825 15.30190716111732
STARLINK-31073          
1 58773U 24011J   26013.00446162 -.00000547  00000+0 -63448-5 0  9990
2 58773  53.1590 272.4012 0001080  73.9161 286.1958 15.30207068111744
STARLINK-31122          
1 58774U 24011K   26012.94549110  .00013052  00000+0  45232-3 0  9992
2 58774  53.1575 272.7373 0001281  73.0197 287.0944 15.30177528111735
STARLINK-31123          
1 58775U 24011L   26012.98337300  .00015570  00000+0  53719-3 0  9999
2 58775  53.1593 272.2665 0001421  68.4196 291.6956 15.30170743111745
STARLINK-31117          
1 58776U 24011M   26012.95288249 -.00002024  00000+0 -56250-4 0  9990
2 58776  53.1588 272.7796 0001173  61.0042 299.1076 15.30181058111739
STARLINK-31132          
1 58777U 24011N   26012.74334636  .00187494  00000+0  59346-2 0  9990
2 58777  53.1592 183.3881 0006215 213.7769 146.2837 15.31520235112992
STARLINK-31120          
1 58778U 24011P   26012.96553640  .00002318  00000+0  90419-4 0  9992
2 58778  53.1614 272.8540 0001356 110.4093 249.7054 15.30182083111733
STARLINK-31142          
1 58779U 24011Q   26012.95076844 -.00000071  00000+0  97276-5 0  9992
2 58779  53.1600 272.7667 0001085 103.3106 256.8016 15.30180430111734
STARLINK-31099          
1 58781U 24011S   26012.94760272  .00005624  00000+0  20198-3 0  9994
2 58781  53.1596 272.7481 0001366  59.1626 300.9509 15.30178130111734
STARLINK-31047          
1 58783U 24011U   26012.91689653 -.00001358  00000+0 -33744-4 0  9990
2 58783  53.1588 257.1851 0001202 104.9755 255.1379 15.30185642111952
STARLINK-31039          
1 58784U 24011V   26013.00658289 -.00000852  00000+0 -16666-4 0  9995
2 58784  53.1596 272.4030 0001031  80.2839 279.8279 15.30189291111743
