[{"OBJECT_NAME":"STARLINK-31140","OBJECT_ID":"2024-011C","EPOCH":"2026-01-12T22:18:42.035616","MEAN_MOTION":15.30187498,"ECCENTRICITY":0.00012879,"INCLINATION":53.1593,"RA_OF_ASC_NODE":272.6451,"ARG_OF_PERICENTER":92.7222,"MEAN_ANOMALY":267.3926,"EPHEMERIS_TYPE":0,"CLASSIFICATION_TYPE":"U","NORAD_CAT_ID":58767,"ELEMENT_SET_NO":999,"REV_AT_EPOCH":11173,"BSTAR":-2.9000552e-5,"MEAN_MOTION_DOT":-1.218e-5,"MEAN_MOTION_DDOT":0},{"OBJECT_NAME":"STARLINK-31145","OBJECT_ID":"2024-011D","EPOCH":"2026-01-13T00:00:02.000160","MEAN_MOTION":15.48388156,"ECCENTRICITY":0.00118698,"INCLINATION":53.1421,"RA_OF_ASC_NODE":278.2604,"ARG_OF_PERICENTER":138.0459,"MEAN_ANOMALY":29.068,"EPHEMERIS_TYPE":0,"CLASSIFICATION_TYPE":"U","NORAD_CAT_ID":58768,"ELEMENT_SET_NO":999,"REV_AT_EPOCH":588,"BSTAR":0.0024120215,"MEAN_MOTION_DOT":0.00131974,"MEAN_MOTION_DDOT":0},{"OBJECT_NAME":"STARLINK-31146","OBJECT_ID":"2024-011E","EPOCH":"2026-01-12T23:48:11.954592","MEAN_MOTION":15.30188208,"ECCENTRICITY":0.00011748,"INCLINATION":53.158,"RA_OF_ASC_NODE":272.3238,"ARG_OF_PERICENTER":74.1055,"MEAN_ANOMALY":286.0075,"EPHEMERIS_TYPE":0,"CLASSIFICATION_TYPE":"U","NORAD_CAT_ID":58769,"ELEMENT_SET_NO":999,"REV_AT_EPOCH":11174,"BSTAR":5.7783702e-5,"MEAN_MOTION_DOT":1.352e-5,"MEAN_MOTION_DDOT":0},{"OBJECT_NAME":"STARLINK-31143","OBJECT_ID":"2024-011F","EPOCH":"2026-01-12T23:43:34.528512","MEAN_MOTION":15.3023661,"ECCENTRICITY":0.00011596,"INCLINATION":53.1589,"RA_OF_ASC_NODE":272.3002,"ARG_OF_PERICENTER":81.0177,"MEAN_ANOMALY":279.0955,"EPHEMERIS_TYPE":0,"CLASSIFICATION_TYPE":"U","NORAD_CAT_ID":58770,"ELEMENT_SET_NO":999,"REV_AT_EPOCH":11174,"BSTAR":0.00018276229,"MEAN_MOTION_DOT":5.063e-5,"MEAN_MOTION_DDOT":0},{"OBJECT_NAME":"STARLINK-31135","OBJECT_ID":"2024-011G","EPOCH":"2026-01-12T23:59:36.360096","MEAN_MOTION":15.30184322,"ECCENTRICITY":0.00012864,"INCLINATION":53.1573,"RA_OF_ASC_NODE":270.2615,"ARG_OF_PERICENTER":65.3204,"MEAN_ANOMALY":294.7931,"EPHEMERIS_TYPE":0,"CLASSIFICATION_TYPE":"U","NORAD_CAT_ID":58771,"ELEMENT_SET_NO":999,"REV_AT_EPOCH":11177,"BSTAR":0.00024099916,"MEAN_MOTION_DOT":6.782e-5,"MEAN_MOTION_DDOT":0},{"OBJECT_NAME":"STARLINK-31136","OBJECT_ID":"2024-011H","EPOCH":"2026-01-12T23:57:19.012608","MEAN_MOTION":15.30190716,"ECCENTRICITY":0.00011668,"INCLINATION":53.1579,"RA_OF_ASC_NODE":272.3572,"ARG_OF_PERICENTER":87.9309,"MEAN_ANOMALY":272.1825,"EPHEMERIS_TYPE":0,"CLASSIFICATION_TYPE":"U","NORAD_CAT_ID":58772,"ELEMENT_SET_NO":999,"REV_AT_EPOCH":11173,"BSTAR":8.3736492e-5,"MEAN_MOTION_DOT":2.121e-5,"MEAN_MOTION_DDOT":0},{"OBJECT_NAME":"STARLINK-31073","OBJECT_ID":"2024-011J","EPOCH":"2026-01-13T00:06:25.483968","MEAN_MOTION":15.30207068,"ECCENTRICITY":0.00010806,"INCLINATION":53.159,"RA_OF_ASC_NODE":272.4012,"ARG_OF_PERICENTER":73.9161,"MEAN_ANOMALY":286.1958,"EPHEMERIS_TYPE":0,"CLASSIFICATION_TYPE":"U","NORAD_CAT_ID":58773,"ELEMENT_SET_NO":999,"REV_AT_EPOCH":11174,"BSTAR":-6.344829e-6,"MEAN_MOTION_DOT":-5.47e-6,"MEAN_MOTION_DDOT":0},{"OBJECT_NAME":"STARLINK-31122","OBJECT_ID":"2024-011K","EPOCH":"2026-01-12T22:41:30.431040","MEAN_MOTION":15.30177528,"ECCENTRICITY":0.00012813,"INCLINATION":53.1575,"RA_OF_ASC_NODE":272.7373,"ARG_OF_PERICENTER":73.0197,"MEAN_ANOMALY":287.0944,"EPHEMERIS_TYPE":0,"CLASSIFICATION_TYPE":"U","NORAD_CAT_ID":58774,"ELEMENT_SET_NO":999,"REV_AT_EPOCH":11173,"BSTAR":0.00045232075,"MEAN_MOTION_DOT":0.00013052,"MEAN_MOTION_DDOT":0},{"OBJECT_NAME":"STARLINK-31123","OBJECT_ID":"2024-011L","EPOCH":"2026-01-12T23:36:03.427200","MEAN_MOTION":15.30170743,"ECCENTRICITY":0.0001421,"INCLINATION":53.1593,"RA_OF_ASC_NODE":272.2665,"ARG_OF_PERICENTER":68.4196,"MEAN_ANOMALY":291.6956,"EPHEMERIS_TYPE":0,"CLASSIFICATION_TYPE":"U","NORAD_CAT_ID":58775,"ELEMENT_SET_NO":999,"REV_AT_EPOCH":11174,"BSTAR":0.00053719054,"MEAN_MOTION_DOT":0.0001557,"MEAN_MOTION_DDOT":0},{"OBJECT_NAME":"STARLINK-31117","OBJECT_ID":"2024-011M","EPOCH":"2026-01-12T22:52:09.047136","MEAN_MOTION":15.30181058,"ECCENTRICITY":0.00011735,"INCLINATION":53.1588,"RA_OF_ASC_NODE":272.7796,"ARG_OF_PERICENTER":61.0042,"MEAN_ANOMALY":299.1076,"EPHEMERIS_TYPE":0,"CLASSIFICATION_TYPE":"U","NORAD_CAT_ID":58776,"ELEMENT_SET_NO":999,"REV_AT_EPOCH":11173,"BSTAR":-5.6250338e-5,"MEAN_MOTION_DOT":-2.024e-5,"MEAN_MOTION_DDOT":0},{"OBJECT_NAME":"STARLINK-31132","OBJECT_ID":"2024-011N","EPOCH":"2026-01-12T17:50:25.125504","MEAN_MOTION":15.31520235,"ECCENTRICITY":0.00062156,"INCLINATION":53.1592,"RA_OF_ASC_NODE":183.3881,"ARG_OF_PERICENTER":213.7769,"MEAN_ANOMALY":146.2837,"EPHEMERIS_TYPE":0,"CLASSIFICATION_TYPE":"U","NORAD_CAT_ID":58777,"ELEMENT_SET_NO":999,"REV_AT_EPOCH":11299,"BSTAR":0.0059345794,"MEAN_MOTION_DOT":0.00187494,"MEAN_MOTION_DDOT":0},{"OBJECT_NAME":"STARLINK-31120","OBJECT_ID":"2024-011P","EPOCH":"2026-01-12T23:10:22.344960","MEAN_MOTION":15.30182083,"ECCENTRICITY":0.00013561,"INCLINATION":53.1614,"RA_OF_ASC_NODE":272.854,"ARG_OF_PERICENTER":110.4093,"MEAN_ANOMALY":249.7054,"EPHEMERIS_TYPE":0,"CLASSIFICATION_TYPE":"U","NORAD_CAT_ID":58778,"ELEMENT_SET_NO":999,"REV_AT_EPOCH":11173,"BSTAR":9.0419385e-5,"MEAN_MOTION_DOT":2.318e-5,"MEAN_MOTION_DDOT":0},{"OBJECT_NAME":"STARLINK-31142","OBJECT_ID":"2024-011Q","EPOCH":"2026-01-12T22:49:06.393216","MEAN_MOTION":15.3018043,"ECCENTRICITY":0.0001085,"INCLINATION":53.16,"RA_OF_ASC_NODE":272.7667,"ARG_OF_PERICENTER":103.3106,"MEAN_ANOMALY":256.8016,"EPHEMERIS_TYPE":0,"CLASSIFICATION_TYPE":"U","NORAD_CAT_ID":58779,"ELEMENT_SET_NO":999,"REV_AT_EPOCH":11173,"BSTAR":9.727571e-6,"MEAN_MOTION_DOT":-7.1e-7,"MEAN_MOTION_DDOT":0},{"OBJECT_NAME":"STARLINK-31099","OBJECT_ID":"2024-011S","EPOCH":"2026-01-12T22:44:32.875008","MEAN_MOTION":15.3017813,"ECCENTRICITY":0.00013663,"INCLINATION":53.1596,"RA_OF_ASC_NODE":272.7481,"ARG_OF_PERICENTER":59.1626,"MEAN_ANOMALY":300.9509,"EPHEMERIS_TYPE":0,"CLASSIFICATION_TYPE":"U","NORAD_CAT_ID":58781,"ELEMENT_SET_NO":999,"REV_AT_EPOCH":11173,"BSTAR":0.00020198267,"MEAN_MOTION_DOT":5.624e-5,"MEAN_MOTION_DDOT":0},{"OBJECT_NAME":"STARLINK-31047","OBJECT_ID":"2024-011U","EPOCH":"2026-01-12T22:00:19.860192","MEAN_MOTION":15.30185642,"ECCENTRICITY":0.00012023,"INCLINATION":53.1588,"RA_OF_ASC_NODE":257.1851,"ARG_OF_PERICENTER":104.9755,"MEAN_ANOMALY":255.1379,"EPHEMERIS_TYPE":0,"CLASSIFICATION_TYPE":"U","NORAD_CAT_ID":58783,"ELEMENT_SET_NO":999,"REV_AT_EPOCH":11195,"BSTAR":-3.3743864e-5,"MEAN_MOTION_DOT":-1.358e-5,"MEAN_MOTION_DDOT":0},{"OBJECT_NAME":"STARLINK-31039","OBJECT_ID":"2024-011V","EPOCH":"2026-01-13T00:09:28.761696","MEAN_MOTION":15.30189291,"ECCENTRICITY":0.00010319,"INCLINATION":53.1596,"RA_OF_ASC_NODE":272.403,"ARG_OF_PERICENTER":80.2839,"MEAN_ANOMALY":279.8279,"EPHEMERIS_TYPE":0,"CLASSIFICATION_TYPE":"U","NORAD_CAT_ID":58784,"ELEMENT_SET_NO":999,"REV_AT_EPOCH":11174,"BSTAR":-1.666583e-5,"MEAN_MOTION_DOT":-8.52e-6,"MEAN_MOTION_DDOT":0}]
